[{"OBJECT_NAME":"STARLINK-5929","OBJECT_ID":"2023-037AX","EPOCH":"2026-03-09T21:22:57.659232","MEAN_MOTION":14.98334627,"ECCENTRICITY":0.00025567,"INCLINATION":69.9984,"RA_OF_ASC_NODE":263.9337,"ARG_OF_PERICENTER":270.8446,"MEAN_ANOMALY":89.2421,"EPHEMERIS_TYPE":0,"CLASSIFICATION_TYPE":"U","NORAD_CAT_ID":55959,"ELEMENT_SET_NO":999,"REV_AT_EPOCH":16450,"BSTAR":-7.0636574e-5,"MEAN_MOTION_DOT":-9.36e-6,"MEAN_MOTION_DDOT":0},{"OBJECT_NAME":"COSMOS 2535 DEB","OBJECT_ID":"2019-039P","EPOCH":"2026-02-22T05:58:19.108128","MEAN_MOTION":14.89509191,"ECCENTRICITY":0.00395597,"INCLINATION":97.6774,"RA_OF_ASC_NODE":55.8748,"ARG_OF_PERICENTER":30.9665,"MEAN_ANOMALY":329.3874,"EPHEMERIS_TYPE":0,"CLASSIFICATION_TYPE":"U","NORAD_CAT_ID":44712,"ELEMENT_SET_NO":999,"REV_AT_EPOCH":34537,"BSTAR":0.00038254743,"MEAN_MOTION_DOT":3.642e-5,"MEAN_MOTION_DDOT":0}]
